KUIPER-00136            
1 65962U 25228R   25358.33336806 -.01654094  00000+0 -84149-1 0  9999
2 65962  51.8856 325.2652 0007559  67.2636 128.6065 15.19768804  1822
KUIPER-00137            
1 65963U 25228S   25358.33336806 -.00623339  00000+0 -21365-1 0  9998
2 65963  51.8833 324.7971 0006862  73.6596  33.8680 15.31873241  2342
KUIPER-00138            
1 65964U 25228T   25358.17710739  .00042376  00000+0  11830-2 0  9993
2 65964  51.8817 325.4564 0007939  68.1628 292.0202 15.36278356 12174
KUIPER-00140            
1 65965U 25228U   25358.33336806 -.00899814  00000+0 -35701-1 0  9992
2 65965  51.8818 325.0426 0007802  60.5298 266.2828 15.27669674  5555
KUIPER-00141            
1 65966U 25228V   25358.08887034  .00024390  00000+0  67234-3 0  9994
2 65966  51.8796 325.6200 0006275  63.9621 296.2011 15.36966565 12168
KUIPER-00146            
1 65967U 25228W   25358.23558479 -.00305250  00000+0 -89794-2 0  9993
2 65967  51.8816 325.1114 0009574  35.8392 324.3235 15.35711285 12188
KUIPER-00149            
1 65968U 25228X   25358.09031659  .00029314  00000+0  82210-3 0  9993
2 65968  51.8793 325.6337 0005597  59.7549 300.3991 15.36331130 12164
KUIPER-00154            
1 65969U 25228Y   25358.16005306  .00018622  00000+0  52764-3 0  9993
2 65969  51.8811 325.3479 0006768  51.6986 308.4608 15.36282279 12171
