<?xml version="1.0" encoding="UTF-8"?>
<ndm xmlns:xsi="http://www.w3.org/2001/XMLSchema-instance" xsi:noNamespaceSchemaLocation="https://sanaregistry.org/r/ndmxml_unqualified/ndmxml-2.0.0-master-2.0.xsd">
<omm id="CCSDS_OMM_VERS" version="2.0">
<header><CREATION_DATE/><ORIGINATOR/></header><body><segment><metadata><OBJECT_NAME>KUIPER-00136</OBJECT_NAME><OBJECT_ID>2025-228R</OBJECT_ID><CENTER_NAME>EARTH</CENTER_NAME><REF_FRAME>TEME</REF_FRAME><TIME_SYSTEM>UTC</TIME_SYSTEM><MEAN_ELEMENT_THEORY>SGP4</MEAN_ELEMENT_THEORY></metadata><data><meanElements><EPOCH>2025-12-24T08:00:03.000384</EPOCH><MEAN_MOTION>15.19768804</MEAN_MOTION><ECCENTRICITY>.00075593</ECCENTRICITY><INCLINATION>51.8856</INCLINATION><RA_OF_ASC_NODE>325.2652</RA_OF_ASC_NODE><ARG_OF_PERICENTER>67.2636</ARG_OF_PERICENTER><MEAN_ANOMALY>128.6065</MEAN_ANOMALY></meanElements><tleParameters><EPHEMERIS_TYPE>0</EPHEMERIS_TYPE><CLASSIFICATION_TYPE>U</CLASSIFICATION_TYPE><NORAD_CAT_ID>65962</NORAD_CAT_ID><ELEMENT_SET_NO>999</ELEMENT_SET_NO><REV_AT_EPOCH>182</REV_AT_EPOCH><BSTAR>-.84148635E-1</BSTAR><MEAN_MOTION_DOT>-.1654094E-1</MEAN_MOTION_DOT><MEAN_MOTION_DDOT>0</MEAN_MOTION_DDOT></tleParameters></data></segment></body></omm>
<omm id="CCSDS_OMM_VERS" version="2.0">
<header><CREATION_DATE/><ORIGINATOR/></header><body><segment><metadata><OBJECT_NAME>KUIPER-00137</OBJECT_NAME><OBJECT_ID>2025-228S</OBJECT_ID><CENTER_NAME>EARTH</CENTER_NAME><REF_FRAME>TEME</REF_FRAME><TIME_SYSTEM>UTC</TIME_SYSTEM><MEAN_ELEMENT_THEORY>SGP4</MEAN_ELEMENT_THEORY></metadata><data><meanElements><EPOCH>2025-12-24T08:00:03.000384</EPOCH><MEAN_MOTION>15.31873241</MEAN_MOTION><ECCENTRICITY>.00068626</ECCENTRICITY><INCLINATION>51.8833</INCLINATION><RA_OF_ASC_NODE>324.7971</RA_OF_ASC_NODE><ARG_OF_PERICENTER>73.6596</ARG_OF_PERICENTER><MEAN_ANOMALY>33.8680</MEAN_ANOMALY></meanElements><tleParameters><EPHEMERIS_TYPE>0</EPHEMERIS_TYPE><CLASSIFICATION_TYPE>U</CLASSIFICATION_TYPE><NORAD_CAT_ID>65963</NORAD_CAT_ID><ELEMENT_SET_NO>999</ELEMENT_SET_NO><REV_AT_EPOCH>234</REV_AT_EPOCH><BSTAR>-.21364732E-1</BSTAR><MEAN_MOTION_DOT>-.623339E-2</MEAN_MOTION_DOT><MEAN_MOTION_DDOT>0</MEAN_MOTION_DDOT></tleParameters></data></segment></body></omm>
<omm id="CCSDS_OMM_VERS" version="2.0">
<header><CREATION_DATE/><ORIGINATOR/></header><body><segment><metadata><OBJECT_NAME>KUIPER-00138</OBJECT_NAME><OBJECT_ID>2025-228T</OBJECT_ID><CENTER_NAME>EARTH</CENTER_NAME><REF_FRAME>TEME</REF_FRAME><TIME_SYSTEM>UTC</TIME_SYSTEM><MEAN_ELEMENT_THEORY>SGP4</MEAN_ELEMENT_THEORY></metadata><data><meanElements><EPOCH>2025-12-24T04:15:02.078496</EPOCH><MEAN_MOTION>15.36278356</MEAN_MOTION><ECCENTRICITY>.00079395</ECCENTRICITY><INCLINATION>51.8817</INCLINATION><RA_OF_ASC_NODE>325.4564</RA_OF_ASC_NODE><ARG_OF_PERICENTER>68.1628</ARG_OF_PERICENTER><MEAN_ANOMALY>292.0202</MEAN_ANOMALY></meanElements><tleParameters><EPHEMERIS_TYPE>0</EPHEMERIS_TYPE><CLASSIFICATION_TYPE>U</CLASSIFICATION_TYPE><NORAD_CAT_ID>65964</NORAD_CAT_ID><ELEMENT_SET_NO>999</ELEMENT_SET_NO><REV_AT_EPOCH>1217</REV_AT_EPOCH><BSTAR>.11830426E-2</BSTAR><MEAN_MOTION_DOT>.42376E-3</MEAN_MOTION_DOT><MEAN_MOTION_DDOT>0</MEAN_MOTION_DDOT></tleParameters></data></segment></body></omm>
<omm id="CCSDS_OMM_VERS" version="2.0">
<header><CREATION_DATE/><ORIGINATOR/></header><body><segment><metadata><OBJECT_NAME>KUIPER-00140</OBJECT_NAME><OBJECT_ID>2025-228U</OBJECT_ID><CENTER_NAME>EARTH</CENTER_NAME><REF_FRAME>TEME</REF_FRAME><TIME_SYSTEM>UTC</TIME_SYSTEM><MEAN_ELEMENT_THEORY>SGP4</MEAN_ELEMENT_THEORY></metadata><data><meanElements><EPOCH>2025-12-24T08:00:03.000384</EPOCH><MEAN_MOTION>15.27669674</MEAN_MOTION><ECCENTRICITY>.00078025</ECCENTRICITY><INCLINATION>51.8818</INCLINATION><RA_OF_ASC_NODE>325.0426</RA_OF_ASC_NODE><ARG_OF_PERICENTER>60.5298</ARG_OF_PERICENTER><MEAN_ANOMALY>266.2828</MEAN_ANOMALY></meanElements><tleParameters><EPHEMERIS_TYPE>0</EPHEMERIS_TYPE><CLASSIFICATION_TYPE>U</CLASSIFICATION_TYPE><NORAD_CAT_ID>65965</NORAD_CAT_ID><ELEMENT_SET_NO>999</ELEMENT_SET_NO><REV_AT_EPOCH>555</REV_AT_EPOCH><BSTAR>-.35700864E-1</BSTAR><MEAN_MOTION_DOT>-.899814E-2</MEAN_MOTION_DOT><MEAN_MOTION_DDOT>0</MEAN_MOTION_DDOT></tleParameters></data></segment></body></omm>
<omm id="CCSDS_OMM_VERS" version="2.0">
<header><CREATION_DATE/><ORIGINATOR/></header><body><segment><metadata><OBJECT_NAME>KUIPER-00141</OBJECT_NAME><OBJECT_ID>2025-228V</OBJECT_ID><CENTER_NAME>EARTH</CENTER_NAME><REF_FRAME>TEME</REF_FRAME><TIME_SYSTEM>UTC</TIME_SYSTEM><MEAN_ELEMENT_THEORY>SGP4</MEAN_ELEMENT_THEORY></metadata><data><meanElements><EPOCH>2025-12-24T02:07:58.397376</EPOCH><MEAN_MOTION>15.36966565</MEAN_MOTION><ECCENTRICITY>.00062756</ECCENTRICITY><INCLINATION>51.8796</INCLINATION><RA_OF_ASC_NODE>325.6200</RA_OF_ASC_NODE><ARG_OF_PERICENTER>63.9621</ARG_OF_PERICENTER><MEAN_ANOMALY>296.2011</MEAN_ANOMALY></meanElements><tleParameters><EPHEMERIS_TYPE>0</EPHEMERIS_TYPE><CLASSIFICATION_TYPE>U</CLASSIFICATION_TYPE><NORAD_CAT_ID>65966</NORAD_CAT_ID><ELEMENT_SET_NO>999</ELEMENT_SET_NO><REV_AT_EPOCH>1216</REV_AT_EPOCH><BSTAR>.67234497E-3</BSTAR><MEAN_MOTION_DOT>.2439E-3</MEAN_MOTION_DOT><MEAN_MOTION_DDOT>0</MEAN_MOTION_DDOT></tleParameters></data></segment></body></omm>
<omm id="CCSDS_OMM_VERS" version="2.0">
<header><CREATION_DATE/><ORIGINATOR/></header><body><segment><metadata><OBJECT_NAME>KUIPER-00146</OBJECT_NAME><OBJECT_ID>2025-228W</OBJECT_ID><CENTER_NAME>EARTH</CENTER_NAME><REF_FRAME>TEME</REF_FRAME><TIME_SYSTEM>UTC</TIME_SYSTEM><MEAN_ELEMENT_THEORY>SGP4</MEAN_ELEMENT_THEORY></metadata><data><meanElements><EPOCH>2025-12-24T05:39:14.525856</EPOCH><MEAN_MOTION>15.35711285</MEAN_MOTION><ECCENTRICITY>.00095743</ECCENTRICITY><INCLINATION>51.8816</INCLINATION><RA_OF_ASC_NODE>325.1114</RA_OF_ASC_NODE><ARG_OF_PERICENTER>35.8392</ARG_OF_PERICENTER><MEAN_ANOMALY>324.3235</MEAN_ANOMALY></meanElements><tleParameters><EPHEMERIS_TYPE>0</EPHEMERIS_TYPE><CLASSIFICATION_TYPE>U</CLASSIFICATION_TYPE><NORAD_CAT_ID>65967</NORAD_CAT_ID><ELEMENT_SET_NO>999</ELEMENT_SET_NO><REV_AT_EPOCH>1218</REV_AT_EPOCH><BSTAR>-.89794411E-2</BSTAR><MEAN_MOTION_DOT>-.30525E-2</MEAN_MOTION_DOT><MEAN_MOTION_DDOT>0</MEAN_MOTION_DDOT></tleParameters></data></segment></body></omm>
<omm id="CCSDS_OMM_VERS" version="2.0">
<header><CREATION_DATE/><ORIGINATOR/></header><body><segment><metadata><OBJECT_NAME>KUIPER-00149</OBJECT_NAME><OBJECT_ID>2025-228X</OBJECT_ID><CENTER_NAME>EARTH</CENTER_NAME><REF_FRAME>TEME</REF_FRAME><TIME_SYSTEM>UTC</TIME_SYSTEM><MEAN_ELEMENT_THEORY>SGP4</MEAN_ELEMENT_THEORY></metadata><data><meanElements><EPOCH>2025-12-24T02:10:03.353376</EPOCH><MEAN_MOTION>15.36331130</MEAN_MOTION><ECCENTRICITY>.00055975</ECCENTRICITY><INCLINATION>51.8793</INCLINATION><RA_OF_ASC_NODE>325.6337</RA_OF_ASC_NODE><ARG_OF_PERICENTER>59.7549</ARG_OF_PERICENTER><MEAN_ANOMALY>300.3991</MEAN_ANOMALY></meanElements><tleParameters><EPHEMERIS_TYPE>0</EPHEMERIS_TYPE><CLASSIFICATION_TYPE>U</CLASSIFICATION_TYPE><NORAD_CAT_ID>65968</NORAD_CAT_ID><ELEMENT_SET_NO>999</ELEMENT_SET_NO><REV_AT_EPOCH>1216</REV_AT_EPOCH><BSTAR>.82210442E-3</BSTAR><MEAN_MOTION_DOT>.29314E-3</MEAN_MOTION_DOT><MEAN_MOTION_DDOT>0</MEAN_MOTION_DDOT></tleParameters></data></segment></body></omm>
<omm id="CCSDS_OMM_VERS" version="2.0">
<header><CREATION_DATE/><ORIGINATOR/></header><body><segment><metadata><OBJECT_NAME>KUIPER-00154</OBJECT_NAME><OBJECT_ID>2025-228Y</OBJECT_ID><CENTER_NAME>EARTH</CENTER_NAME><REF_FRAME>TEME</REF_FRAME><TIME_SYSTEM>UTC</TIME_SYSTEM><MEAN_ELEMENT_THEORY>SGP4</MEAN_ELEMENT_THEORY></metadata><data><meanElements><EPOCH>2025-12-24T03:50:28.584384</EPOCH><MEAN_MOTION>15.36282279</MEAN_MOTION><ECCENTRICITY>.00067687</ECCENTRICITY><INCLINATION>51.8811</INCLINATION><RA_OF_ASC_NODE>325.3479</RA_OF_ASC_NODE><ARG_OF_PERICENTER>51.6986</ARG_OF_PERICENTER><MEAN_ANOMALY>308.4608</MEAN_ANOMALY></meanElements><tleParameters><EPHEMERIS_TYPE>0</EPHEMERIS_TYPE><CLASSIFICATION_TYPE>U</CLASSIFICATION_TYPE><NORAD_CAT_ID>65969</NORAD_CAT_ID><ELEMENT_SET_NO>999</ELEMENT_SET_NO><REV_AT_EPOCH>1217</REV_AT_EPOCH><BSTAR>.52763942E-3</BSTAR><MEAN_MOTION_DOT>.18622E-3</MEAN_MOTION_DOT><MEAN_MOTION_DDOT>0</MEAN_MOTION_DDOT></tleParameters></data></segment></body></omm>

</ndm>
